{"type": "FeatureCollection", "features": [ {"type": "Feature", "properties": {"norad_id": 66573, "name": "STARLINK-35650", "group": "last-30-days", "lat": 27.333079352911298, "lon": -61.272292433967145, "alt_km": 388.5373435882684, "timestamp": "2025-12-07T09:35:08.570944+00:00", "meta": {"OBJECT_NAME": "STARLINK-35650", "OBJECT_ID": "2025-268S", "EPOCH": "2025-12-06T22:00:01.999584", "MEAN_MOTION": 15.60632939, "ECCENTRICITY": 0.00017328, "INCLINATION": 42.9999, "RA_OF_ASC_NODE": 155.2787, "ARG_OF_PERICENTER": 272.7835, "MEAN_ANOMALY": 31.3294, "EPHEMERIS_TYPE": 0, "CLASSIFICATION_TYPE": "U", "NORAD_CAT_ID": 66573, "ELEMENT_SET_NO": 999, "REV_AT_EPOCH": 373, "BSTAR": -0.025917891, "MEAN_MOTION_DOT": -0.01944714, "MEAN_MOTION_DDOT": 0}, "tle": {"line1": "1 66573U 25268S   25340.91668981 -.01944714  00000+0 -25918-1 0  9999", "line2": "2 66573  42.9999 155.2787 0001732 272.7835  31.3294 15.60632939  3732"}}, "geometry": {"type": "Point", "coordinates": [-61.272292433967145, 27.333079352911298]}}, {"type": "Feature", "properties": {"norad_id": 66574, "name": "STARLINK-35812", "group": "last-30-days", "lat": 26.23270612758883, "lon": -59.514417633455146, "alt_km": 388.6032310399014, "timestamp": "2025-12-07T09:35:08.570954+00:00", "meta": {"OBJECT_NAME": "STARLINK-35812", "OBJECT_ID": "2025-268T", "EPOCH": "2025-12-06T22:00:01.999584", "MEAN_MOTION": 15.60627921, "ECCENTRICITY": 0.00016038, "INCLINATION": 42.9999, "RA_OF_ASC_NODE": 155.2735, "ARG_OF_PERICENTER": 272.4517, "MEAN_ANOMALY": 33.5814, "EPHEMERIS_TYPE": 0, "CLASSIFICATION_TYPE": "U", "NORAD_CAT_ID": 66574, "ELEMENT_SET_NO": 999, "REV_AT_EPOCH": 373, "BSTAR": -0.025825369, "MEAN_MOTION_DOT": -0.01938174, "MEAN_MOTION_DDOT": 0}, "tle": {"line1": "1 66574U 25268T   25340.91668981 -.01938174  00000+0 -25825-1 0  9990", "line2": "2 66574  42.9999 155.2735 0001603 272.4517  33.5814 15.60627921  3734"}}, "geometry": {"type": "Point", "coordinates": [-59.514417633455146, 26.23270612758883]}}, {"type": "Feature", "properties": {"norad_id": 66575, "name": "STARLINK-35810", "group": "last-30-days", "lat": 25.113481526870704, "lon": -57.79319329165377, "alt_km": 388.78062420203514, "timestamp": "2025-12-07T09:35:08.570964+00:00", "meta": {"OBJECT_NAME": "STARLINK-35810", "OBJECT_ID": "2025-268U", "EPOCH": "2025-12-06T22:00:01.999584", "MEAN_MOTION": 15.6062654, "ECCENTRICITY": 0.00017235, "INCLINATION": 42.9996, "RA_OF_ASC_NODE": 155.2688, "ARG_OF_PERICENTER": 271.2356, "MEAN_ANOMALY": 36.7138, "EPHEMERIS_TYPE": 0, "CLASSIFICATION_TYPE": "U", "NORAD_CAT_ID": 66575, "ELEMENT_SET_NO": 999, "REV_AT_EPOCH": 373, "BSTAR": -0.025789032, "MEAN_MOTION_DOT": -0.01935767, "MEAN_MOTION_DDOT": 0}, "tle": {"line1": "1 66575U 25268U   25340.91668981 -.01935767  00000+0 -25789-1 0  9995", "line2": "2 66575  42.9996 155.2688 0001723 271.2356  36.7138 15.60626540  3730"}}, "geometry": {"type": "Point", "coordinates": [-57.79319329165377, 25.113481526870704]}}, {"type": "Feature", "properties": {"norad_id": 66576, "name": "STARLINK-35814", "group": "last-30-days", "lat": 23.97329684583132, "lon": -56.10166129867094, "alt_km": 388.86599180858775, "timestamp": "2025-12-07T09:35:08.570976+00:00", "meta": {"OBJECT_NAME": "STARLINK-35814", "OBJECT_ID": "2025-268V", "EPOCH": "2025-12-06T22:00:01.999584", "MEAN_MOTION": 15.60629759, "ECCENTRICITY": 0.000167, "INCLINATION": 42.9993, "RA_OF_ASC_NODE": 155.264, "ARG_OF_PERICENTER": 269.0754, "MEAN_ANOMALY": 40.7911, "EPHEMERIS_TYPE": 0, "CLASSIFICATION_TYPE": "U", "NORAD_CAT_ID": 66576, "ELEMENT_SET_NO": 999, "REV_AT_EPOCH": 373, "BSTAR": -0.025862785, "MEAN_MOTION_DOT": -0.01940817, "MEAN_MOTION_DDOT": 0}, "tle": {"line1": "1 66576U 25268V   25340.91668981 -.01940817  00000+0 -25863-1 0  9991", "line2": "2 66576  42.9993 155.2640 0001670 269.0754  40.7911 15.60629759  3733"}}, "geometry": {"type": "Point", "coordinates": [-56.10166129867094, 23.97329684583132]}}, {"type": "Feature", "properties": {"norad_id": 66577, "name": "STARLINK-35815", "group": "last-30-days", "lat": 22.815539171789, "lon": -54.440619868378185, "alt_km": 389.0319893099768, "timestamp": "2025-12-07T09:35:08.570987+00:00", "meta": {"OBJECT_NAME": "STARLINK-35815", "OBJECT_ID": "2025-268W", "EPOCH": "2025-12-06T22:00:01.999584", "MEAN_MOTION": 15.60630528, "ECCENTRICITY": 0.00017129, "INCLINATION": 42.9995, "RA_OF_ASC_NODE": 155.2592, "ARG_OF_PERICENTER": 269.1299, "MEAN_ANOMALY": 42.6523, "EPHEMERIS_TYPE": 0, "CLASSIFICATION_TYPE": "U", "NORAD_CAT_ID": 66577, "ELEMENT_SET_NO": 999, "REV_AT_EPOCH": 373, "BSTAR": -0.025863775, "MEAN_MOTION_DOT": -0.01940964, "MEAN_MOTION_DDOT": 0}, "tle": {"line1": "1 66577U 25268W   25340.91668981 -.01940964  00000+0 -25864-1 0  9996", "line2": "2 66577  42.9995 155.2592 0001712 269.1299  42.6523 15.60630528  3730"}}, "geometry": {"type": "Point", "coordinates": [-54.440619868378185, 22.815539171789]}}, {"type": "Feature", "properties": {"norad_id": 66578, "name": "STARLINK-35743", "group": "last-30-days", "lat": 21.640023207227326, "lon": -52.80725998854206, "alt_km": 389.18461230783214, "timestamp": "2025-12-07T09:35:08.570999+00:00", "meta": {"OBJECT_NAME": "STARLINK-35743", "OBJECT_ID": "2025-268X", "EPOCH": "2025-12-06T22:00:01.999584", "MEAN_MOTION": 15.60629508, "ECCENTRICITY": 0.00016979, "INCLINATION": 42.9995, "RA_OF_ASC_NODE": 155.2542, "ARG_OF_PERICENTER": 269.5218, "MEAN_ANOMALY": 44.1787, "EPHEMERIS_TYPE": 0, "CLASSIFICATION_TYPE": "U", "NORAD_CAT_ID": 66578, "ELEMENT_SET_NO": 999, "REV_AT_EPOCH": 373, "BSTAR": -0.02585342, "MEAN_MOTION_DOT": -0.01940202, "MEAN_MOTION_DDOT": 0}, "tle": {"line1": "1 66578U 25268X   25340.91668981 -.01940202  00000+0 -25853-1 0  9990", "line2": "2 66578  42.9995 155.2542 0001697 269.5218  44.1787 15.60629508  3738"}}, "geometry": {"type": "Point", "coordinates": [-52.80725998854206, 21.640023207227326]}}, {"type": "Feature", "properties": {"norad_id": 66579, "name": "STARLINK-35868", "group": "last-30-days", "lat": 20.44924776663035, "lon": -51.2009593609713, "alt_km": 389.40634371686883, "timestamp": "2025-12-07T09:35:08.571009+00:00", "meta": {"OBJECT_NAME": "STARLINK-35868", "OBJECT_ID": "2025-268Y", "EPOCH": "2025-12-06T22:00:01.999584", "MEAN_MOTION": 15.60628559, "ECCENTRICITY": 0.00017184, "INCLINATION": 42.9996, "RA_OF_ASC_NODE": 155.2494, "ARG_OF_PERICENTER": 272.2539, "MEAN_ANOMALY": 43.3634, "EPHEMERIS_TYPE": 0, "CLASSIFICATION_TYPE": "U", "NORAD_CAT_ID": 66579, "ELEMENT_SET_NO": 999, "REV_AT_EPOCH": 373, "BSTAR": -0.025836523, "MEAN_MOTION_DOT": -0.01939036, "MEAN_MOTION_DDOT": 0}, "tle": {"line1": "1 66579U 25268Y   25340.91668981 -.01939036  00000+0 -25837-1 0  9996", "line2": "2 66579  42.9996 155.2494 0001718 272.2539  43.3634 15.60628559  3734"}}, "geometry": {"type": "Point", "coordinates": [-51.2009593609713, 20.44924776663035]}}, {"type": "Feature", "properties": {"norad_id": 66580, "name": "STARLINK-35872", "group": "last-30-days", "lat": 19.24272470093986, "lon": -49.61779178760262, "alt_km": 389.5321853846135, "timestamp": "2025-12-07T09:35:08.571021+00:00", "meta": {"OBJECT_NAME": "STARLINK-35872", "OBJECT_ID": "2025-268Z", "EPOCH": "2025-12-06T22:00:01.999584", "MEAN_MOTION": 15.60633191, "ECCENTRICITY": 0.00016358, "INCLINATION": 42.9995, "RA_OF_ASC_NODE": 155.2451, "ARG_OF_PERICENTER": 272.6429, "MEAN_ANOMALY": 44.8873, "EPHEMERIS_TYPE": 0, "CLASSIFICATION_TYPE": "U", "NORAD_CAT_ID": 66580, "ELEMENT_SET_NO": 999, "REV_AT_EPOCH": 373, "BSTAR": -0.025880895, "MEAN_MOTION_DOT": -0.01942217, "MEAN_MOTION_DDOT": 0}, "tle": {"line1": "1 66580U 25268Z   25340.91668981 -.01942217  00000+0 -25881-1 0  9992", "line2": "2 66580  42.9995 155.2451 0001635 272.6429  44.8873 15.60633191  3737"}}, "geometry": {"type": "Point", "coordinates": [-49.61779178760262, 19.24272470093986]}}, {"type": "Feature", "properties": {"norad_id": 66581, "name": "STARLINK-35744", "group": "last-30-days", "lat": 18.02442387930565, "lon": -48.06126550645743, "alt_km": 389.74453750842713, "timestamp": "2025-12-07T09:35:08.571033+00:00", "meta": {"OBJECT_NAME": "STARLINK-35744", "OBJECT_ID": "2025-268AA", "EPOCH": "2025-12-06T22:00:01.999584", "MEAN_MOTION": 15.60627777, "ECCENTRICITY": 0.00017018, "INCLINATION": 42.9995, "RA_OF_ASC_NODE": 155.2395, "ARG_OF_PERICENTER": 273.7153, "MEAN_ANOMALY": 45.7385, "EPHEMERIS_TYPE": 0, "CLASSIFICATION_TYPE": "U", "NORAD_CAT_ID": 66581, "ELEMENT_SET_NO": 999, "REV_AT_EPOCH": 368, "BSTAR": -0.025852711, "MEAN_MOTION_DOT": -0.01940042, "MEAN_MOTION_DDOT": 0}, "tle": {"line1": "1 66581U 25268AA  25340.91668981 -.01940042  00000+0 -25853-1 0  9996", "line2": "2 66581  42.9995 155.2395 0001701 273.7153  45.7385 15.60627777  3680"}}, "geometry": {"type": "Point", "coordinates": [-48.06126550645743, 18.02442387930565]}}, {"type": "Feature", "properties": {"norad_id": 66582, "name": "STARLINK-35746", "group": "last-30-days", "lat": 16.792289826731224, "lon": -46.52366503080755, "alt_km": 389.86610916069276, "timestamp": "2025-12-07T09:35:08.571043+00:00", "meta": {"OBJECT_NAME": "STARLINK-35746", "OBJECT_ID": "2025-268AB", "EPOCH": "2025-12-06T22:00:01.999584", "MEAN_MOTION": 15.60628699, "ECCENTRICITY": 0.00016351, "INCLINATION": 42.9997, "RA_OF_ASC_NODE": 155.2346, "ARG_OF_PERICENTER": 273.562, "MEAN_ANOMALY": 47.8079, "EPHEMERIS_TYPE": 0, "CLASSIFICATION_TYPE": "U", "NORAD_CAT_ID": 66582, "ELEMENT_SET_NO": 999, "REV_AT_EPOCH": 373, "BSTAR": -0.025849441, "MEAN_MOTION_DOT": -0.01939839, "MEAN_MOTION_DDOT": 0}, "tle": {"line1": "1 66582U 25268AB  25340.91668981 -.01939839  00000+0 -25849-1 0  9994", "line2": "2 66582  42.9997 155.2346 0001635 273.5620  47.8079 15.60628699  3735"}}, "geometry": {"type": "Point", "coordinates": [-46.52366503080755, 16.792289826731224]}}]}